{
    "links": {
        "self": "http://www.neowsapp.com/rest/v1/neo/3735677?api_key=iIulBulltgU6a56xZRHN4H3l9WmuAYTsLGpBGhQ2"
    },
    "id": "3735677",
    "neo_reference_id": "3735677",
    "name": "(2015 XU1)",
    "designation": "2015 XU1",
    "nasa_jpl_url": "http://ssd.jpl.nasa.gov/sbdb.cgi?sstr=3735677",
    "absolute_magnitude_h": 23.8,
    "estimated_diameter": {
        "kilometers": {
            "estimated_diameter_min": 0.046190746,
            "estimated_diameter_max": 0.1032856481
        },
        "meters": {
            "estimated_diameter_min": 46.1907460282,
            "estimated_diameter_max": 103.2856480504
        },
        "miles": {
            "estimated_diameter_min": 0.0287015901,
            "estimated_diameter_max": 0.0641787064
        },
        "feet": {
            "estimated_diameter_min": 151.544447199,
            "estimated_diameter_max": 338.8636855496
        }
    },
    "is_potentially_hazardous_asteroid": false,
    "close_approach_data": [
        {
            "close_approach_date": "2011-12-07",
            "close_approach_date_full": "2011-Dec-07 12:22",
            "epoch_date_close_approach": 1323260520000,
            "relative_velocity": {
                "kilometers_per_second": "18.7432906823",
                "kilometers_per_hour": "67475.8464564074",
                "miles_per_hour": "41926.8669273161"
            },
            "miss_distance": {
                "astronomical": "0.2979768046",
                "lunar": "115.9129769894",
                "kilometers": "44576695.277566202",
                "miles": "27698674.0408975076"
            },
            "orbiting_body": "Earth"
        },
        {
            "close_approach_date": "2013-12-01",
            "close_approach_date_full": "2013-Dec-01 00:25",
            "epoch_date_close_approach": 1385857500000,
            "relative_velocity": {
                "kilometers_per_second": "16.0578413291",
                "kilometers_per_hour": "57808.2287846484",
                "miles_per_hour": "35919.7852689944"
            },
            "miss_distance": {
                "astronomical": "0.1460667259",
                "lunar": "56.8199563751",
                "kilometers": "21851271.072513833",
                "miles": "13577750.2358155754"
            },
            "orbiting_body": "Earth"
        },
        {
            "close_approach_date": "2015-11-25",
            "close_approach_date_full": "2015-Nov-25 21:47",
            "epoch_date_close_approach": 1448488020000,
            "relative_velocity": {
                "kilometers_per_second": "14.4506499669",
                "kilometers_per_hour": "52022.3398807993",
                "miles_per_hour": "32324.6589109333"
            },
            "miss_distance": {
                "astronomical": "0.1013860108",
                "lunar": "39.4391582012",
                "kilometers": "15167131.263476996",
                "miles": "9424418.3510387048"
            },
            "orbiting_body": "Earth"
        },
        {
            "close_approach_date": "2017-11-20",
            "close_approach_date_full": "2017-Nov-20 03:02",
            "epoch_date_close_approach": 1511146920000,
            "relative_velocity": {
                "kilometers_per_second": "14.1979559341",
                "kilometers_per_hour": "51112.6413629393",
                "miles_per_hour": "31759.4076290997"
            },
            "miss_distance": {
                "astronomical": "0.2363689396",
                "lunar": "91.9475175044",
                "kilometers": "35360289.898318652",
                "miles": "21971865.2938833176"
            },
            "orbiting_body": "Earth"
        }
    ],
    "orbital_data": {
        "orbit_id": "6",
        "orbit_determination_date": "2017-04-06 08:30:15",
        "first_observation_date": "2015-12-03",
        "last_observation_date": "2015-12-18",
        "data_arc_in_days": 15,
        "observations_used": 24,
        "orbit_uncertainty": "8",
        "minimum_orbit_intersection": ".0879354",
        "jupiter_tisserand_invariant": "4.240",
        "epoch_osculation": "2457361.5",
        "eccentricity": ".3382311908500818",
        "semi_major_axis": "1.573661074055141",
        "inclination": "25.64360079649169",
        "ascending_node_longitude": "247.7887018610399",
        "orbital_period": "721.0497494766933",
        "perihelion_distance": "1.041399814983052",
        "perihelion_argument": "149.7249451927226",
        "aphelion_distance": "2.10592233312723",
        "perihelion_time": "2457325.616483422204",
        "mean_anomaly": "17.91563755119801",
        "mean_motion": ".499272068621163",
        "equinox": "J2000",
        "orbit_class": {
            "orbit_class_type": "AMO",
            "orbit_class_description": "Near-Earth asteroid orbits similar to that of 1221 Amor",
            "orbit_class_range": "1.017 AU < q (perihelion) < 1.3 AU"
        }
    },
    "is_sentry_object": false
}